GPS BIIF-4              
1 39166U 13023A   26090.90349851 -.00000034  00000+0  00000+0 0  9996
2 39166  54.5658 272.1198 0141962  50.3418 310.8851  2.00563989 94331
INSAT-3D                
1 39216U 13038B   26095.84195384 -.00000337  00000+0  00000+0 0  9992
2 39216   1.7391  83.4424 0001734 268.1102 275.1739  1.00271447 46352
GPS BIIF-5              
1 39533U 14008A   26095.39069735  .00000020  00000+0  00000+0 0  9990
2 39533  53.6411 152.2899 0083298 229.4222 129.9278  2.00555200 88221
LUCH 5V                 
1 39727U 14023A   26095.91136294 -.00000265  00000+0  00000+0 0  9997
2 39727   4.9562  70.4510 0002925 321.7923 224.7809  1.00270107 43634
GPS BIIF-6              
1 39741U 14026A   26095.66718280 -.00000088  00000+0  00000+0 0  9992
2 39741  56.5313 334.3423 0039349 326.1202  33.6769  2.00566500 87086
GPS BIIF-7              
1 40105U 14045A   26095.25809524  .00000002  00000+0  00000+0 0  9991
2 40105  55.3047  91.3685 0031400 119.7721 240.5476  2.00553703 84616
GSAT0201 (GALILEO 5)    
1 40128U 14050A   26094.57587155 -.00000043  00000+0  00000+0 0  9995
2 40128  48.9567 276.4486 1662760 176.5217 184.7885  1.85520165 76951
GSAT0202 (GALILEO 6)    
1 40129U 14050B   26091.59776485 -.00000055  00000+0  00000+0 0  9994
2 40129  48.9773 275.6550 1663302 177.1412 183.9310  1.85520784 79067
GPS BIIF-8              
1 40294U 14068A   26095.13374736 -.00000083  00000+0  00000+0 0  9994
2 40294  56.9408  33.7696 0064300  68.3893 292.2824  2.00571865 83742
GLONASS-K 2             
1 40315U 14075A   26084.30325579  .00000001  00000+0  00000+0 0  9993
2 40315  63.6158 193.2737 0021182 207.3153 152.5805  2.13101287 88064
GPS BIIF-9              
1 40534U 15013A   26095.76537834  .00000006  00000+0  00000+0 0  9995
2 40534  53.1789 207.1723 0108822  39.9432 320.8559  2.00555754 80377
GSAT0203 (GALILEO 7)    
1 40544U 15017A   26094.30331323 -.00000095  00000+0  00000+0 0  9993
2 40544  56.8108 343.6116 0004485 297.4041  62.5970  1.70475988 67943
GSAT0204 (GALILEO 8)    
1 40545U 15017B   26093.97240100 -.00000096  00000+0  00000+0 0  9999
2 40545  56.8167 343.6389 0003117 291.5044  68.5090  1.70475693 30986
GPS BIIF-10             
1 40730U 15033A   26095.42667885 -.00000014  00000+0  00000+0 0  9998
2 40730  54.0409 270.0842 0114939  29.5944 331.0235  2.00560101 78536
METEOSAT-11 (MSG-4)     
1 40732U 15034A   26095.81810227  .00000066  00000+0  00000+0 0  9990
2 40732   3.0202  71.4878 0001739 285.4621 141.0015  1.00276334  6495
GSAT0205 (GALILEO 9)    
1 40889U 15045A   26094.72644198 -.00000006  00000+0  00000+0 0  9991
2 40889  54.9704 223.7301 0004155 270.0505  89.8604  1.67410833 65731
GSAT0206 (GALILEO 10)   
1 40890U 15045B   26093.37447767 -.00000013  00000+0  00000+0 0  9994
2 40890  54.9697 223.6683 0002814  47.1384 312.8358  1.70473950 65765
